{"spkid": "20828534", "covariance": {"epoch": "2458422.5", "data": [["1.252202378471494E-14", "-2.800255154918569E-14", "8.290436816756818E-12", "6.241773270057263E-12", "-3.149827969324058E-12", "-3.429881295362192E-12"], ["-2.800255154918569E-14", "6.262789838609956E-14", "-1.840289717704921E-11", "-1.393637087847405E-11", "7.035522942504726E-12", "7.667691389526324E-12"], ["8.290436816756818E-12", "-1.840289717704921E-11", "8.841661573903701E-9", "4.768129273551954E-9", "-2.263185307542261E-9", "-2.623737349906957E-9"], ["6.241773270057263E-12", "-1.393637087847405E-11", "4.768129273551954E-9", "1.525194255212398E-8", "-1.350510458377E-8", "-2.073382122744945E-9"], ["-3.149827969324058E-12", "7.035522942504726E-12", "-2.263185307542261E-9", "-1.350510458377E-8", "1.264426026900087E-8", "1.148603614224492E-9"], ["-3.429881295362192E-12", "7.667691389526324E-12", "-2.623737349906957E-9", "-2.073382122744945E-9", "1.148603614224492E-9", "1.244172299368961E-9"]], "elements": [{"label": "e", "units": null, "value": ".8618227434978926", "title": "eccentricity", "name": "e", "sigma": 1.11901848888725e-07}, {"sigma": 2.50255666041949e-07, "name": "q", "units": "au", "value": ".3086565019788765", "title": "perihelion distance", "label": "q"}, {"label": "tp", "name": "tp", "sigma": 9.40301099324238e-05, "value": "2458278.115322741043", "title": "time of perihelion passage", "units": "TDB"}, {"label": "node", "name": "om", "sigma": 0.000123498755265484, "units": "deg", "value": "205.0981956519265", "title": "longitude of the ascending node"}, {"title": "argument of perihelion", "value": "317.3687399599978", "units": "deg", "sigma": 0.000112446699680341, "name": "w", "label": "peri"}, {"label": "i", "title": "inclination", "value": "4.180329459226154", "units": "deg", "name": "i", "sigma": 3.52728266427424e-05}], "labels": ["e", "q", "tp", "node", "peri", "i"]}, "elements": [{"sigma": "1.1004E-7", "name": "e", "units": null, "title": "eccentricity", "value": ".8611672271151627", "label": "e"}, {"sigma": "1.6934E-8", "name": "a", "title": "semi-major axis", "value": "2.236951556238957", "units": "au", "label": "a"}, {"label": "q", "value": ".3105621873617065", "title": "perihelion distance", "units": "au", "name": "q", "sigma": "2.4594E-7"}, {"units": "deg", "title": "inclination; angle with respect to x-y ecliptic plane", "value": "4.196495610922386", "name": "i", "sigma": "3.5327E-5", "label": "i"}, {"label": "node", "title": "longitude of the ascending node", "value": "204.8124517354618", "units": "deg", "sigma": ".00012187", "name": "om"}, {"label": "peri", "sigma": ".00011104", "name": "w", "units": "deg", "value": "317.6654720220156", "title": "argument of perihelion"}, {"label": "M", "units": "deg", "value": "142.3276271629595", "title": "mean anomaly", "sigma": "3.5338E-5", "name": "ma"}, {"value": "2460717.363327701447", "title": "time of perihelion passage", "units": "TDB", "name": "tp", "sigma": ".00011557", "label": "tp"}, {"label": "period", "name": "per", "sigma": "1.3877E-5", "units": "d", "value": "1222.034017530109", "title": "sidereal orbital period"}, {"label": "n", "units": "deg/d", "title": "mean motion", "value": ".2945908173060576", "name": "n", "sigma": "3.3452E-9"}, {"units": "au", "title": "aphelion distance", "value": "4.163340925116207", "sigma": "3.1517E-8", "name": "ad", "label": "Q"}], "epoch": "2461200.5"}